ONEWEB-0201             
1 48241U 21031AH  21189.58335648 -.01109753  00000-0 -51178+0 0  9998
2 48241  87.7139 289.8090 0010862   8.5763 245.2469 14.24164379  3497
ONEWEB-0207             
1 48242U 21031AJ  21189.91670139 -.01167819  00000-0 -62375+0 0  9991
2 48242  87.6872 289.6822 0009861  28.7697 128.7370 14.16534690 11021
ONEWEB-0208             
1 48243U 21031AK  21189.91670139 -.01179100  00000-0 -58831+0 0  9990
2 48243  87.6913 289.6504 0008254  26.3047  88.8956 14.20214490 11016
ONEWEB-0200             
1 48244U 21031AL  21189.58335648 -.01134861  00000-0 -70925+0 0  9990
2 48244  87.6114 289.7262 0011376  20.4528 118.7496 14.07882909  3463
ONEWEB-0217             
1 48245U 21031AM  21189.83334491 -.01166831  00000-0 -80272+0 0  9992
2 48245  87.5842 289.6158 0008729  38.8338 255.8864 14.02651913 10929
ONEWEB-0211             
1 48767U 21045A   21189.58335648 -.00883438  00000-0 -71789-1 0  9996
2 48767  87.4882 262.4007 0009321 120.4006 252.7232 15.02505582  3605
ONEWEB-0223             
1 48768U 21045B   21189.58335648 -.00904270  00000-0 -76054-1 0  9995
2 48768  87.4920 262.3843 0013591 101.0445 101.0938 15.01213850  3604
ONEWEB-0230             
1 48769U 21045C   21189.91670139 -.00819758  00000-0 -43872-1 0  9998
2 48769  87.5206 262.1688 0009823 108.8491 186.3316 15.17851300  7590
ONEWEB-0237             
1 48770U 21045D   21189.58335648  .00054597  00000-0  51002-2 0  9991
2 48770  87.4446 262.4546 0013705 114.7469 281.2550 14.93836241  7515
ONEWEB-0235             
1 48771U 21045E   21189.58335648 -.00884874  00000-0 -86168-1 0  9993
2 48771  87.4523 262.4545 0008291 117.6067 125.0560 14.95587149  3605
ONEWEB-0242             
1 48772U 21045F   21189.83334491 -.00998504  00000-0 -78696-1 0  9990
2 48772  87.4910 262.2904 0012826 119.1567 331.8475 15.03496824  7575
ONEWEB-0241             
1 48773U 21045G   21189.58335648 -.00935486  00000-0 -87991-1 0  9996
2 48773  87.4550 262.4226 0009753 106.8758 273.8676 14.96618424  3606
ONEWEB-0243             
1 48774U 21045H   21189.58335648 -.00910532  00000-0 -93160-1 0  9997
2 48774  87.4526 262.4714 0013338 117.8765 296.3568 14.93209552  3612
ONEWEB-0222             
1 48775U 21045J   21189.58335648 -.00928768  00000-0 -83512-1 0  9998
2 48775  87.4739 262.4043 0012846 116.0264 252.7116 14.98757752  3601
ONEWEB-0244             
1 48776U 21045K   21189.58335648 -.00877051  00000-0 -60632-1 0  9995
2 48776  87.5131 262.3669 0008260 107.5976  14.2934 15.08495592  3626
ONEWEB-0247             
1 48777U 21045L   21189.58335648 -.00930694  00000-0 -87500-1 0  9992
2 48777  87.4567 262.4220 0009386 106.7046 281.2786 14.96626868  3621
ONEWEB-0245             
1 48778U 21045M   21189.91670139 -.00029629  00000-0 -27666-2 0  9992
2 48778  87.4475 262.3575 0013848 111.2735 313.7666 14.94382215  7575
ONEWEB-0229             
1 48779U 21045N   21189.91670139 -.00983879  00000-0 -96168-1 0  9991
2 48779  87.4649 262.3299 0009056 117.8027 289.1843 14.95268517  7576
ONEWEB-0228             
1 48780U 21045P   21189.58335648 -.00890382  00000-0 -91433-1 0  9995
2 48780  87.4531 262.4511 0012008 103.9194  68.9740 14.93479980  3603
ONEWEB-0232             
1 48781U 21045Q   21189.58335648 -.00709604  00000-0 -32057-1 0  9999
2 48781  87.5105 262.2275 0012222 122.4094 116.3917 15.23645885  3629
ONEWEB-0231             
1 48782U 21045R   21189.91670139 -.00990059  00000-0 -93481-1 0  9998
2 48782  87.4655 262.3015 0010585 118.8155  56.6681 14.96614816  7570
ONEWEB-0234             
1 48783U 21045S   21189.58335648 -.00915421  00000-0 -84295-1 0  9998
2 48783  87.4652 262.4331 0010810 102.9716 275.9208 14.97826794  7525
ONEWEB-0238             
1 48784U 21045T   21189.91670139 -.00977184  00000-0 -89140-1 0  9991
2 48784  87.4742 262.3071 0012208 116.9888 185.2749 14.97889740  7583
ONEWEB-0240             
1 48785U 21045U   21189.91670139 -.00919612  00000-0 -73965-1 0  9992
2 48785  87.4883 262.3132 0009722 111.4040 128.0466 15.03003123  7587
ONEWEB-0246             
1 48786U 21045V   21189.91670139 -.00985936  00000-0 -11439+0 0  9991
2 48786  87.4295 262.3781 0008877 124.8961 277.8202 14.88473060  7545
ONEWEB-0210             
1 48787U 21045W   21189.91670139 -.00984455  00000-0 -10283+0 0  9993
2 48787  87.4507 262.3464 0012292 102.2158  20.6821 14.92620960  7565
ONEWEB-0214             
1 48788U 21045X   21189.91670139 -.00998154  00000-0 -11843+0 0  9998
2 48788  87.4300 262.3859 0008591 114.1499 186.5411 14.87608332  7540
ONEWEB-0221             
1 48789U 21045Y   21189.91670139 -.00979130  00000-0 -82387-1 0  9995
2 48789  87.4936 262.2826 0013515  96.8854 135.3573 15.00966023  7600
ONEWEB-0213             
1 48790U 21045Z   21189.83334491 -.01012000  00000-0 -88424-1 0  9999
2 48790  87.4844 262.3108 0013772 107.1169 269.7437 14.99616971  7583
ONEWEB-0212             
1 48791U 21045AA  21189.83334491 -.01023991  00000-0 -87616-1 0  9993
2 48791  87.4870 262.3211 0013789 104.8153 323.5249 15.00448883  7581
ONEWEB-0227             
1 48792U 21045AB  21189.58335648 -.00919472  00000-0 -89415-1 0  9997
2 48792  87.4828 262.4936 0010901 103.9827 187.3710 14.95261570  3619
ONEWEB-0226             
1 48793U 21045AC  21189.83334491 -.01040419  00000-0 -10526+0 0  9993
2 48793  87.4425 262.3687 0012565 124.9930 154.8116 14.94037430  7541
ONEWEB-0224             
1 48794U 21045AD  21189.91670139 -.01010099  00000-0 -12857+0 0  9995
2 48794  87.4040 262.3816 0010452 109.3702 352.5263 14.84761728  7538
ONEWEB-0233             
1 48795U 21045AE  21189.91670139 -.01013592  00000-0 -12539+0 0  9994
2 48795  87.4124 262.3929 0009426 115.0449  78.4904 14.85949536  7541
ONEWEB-0190             
1 48796U 21045AF  21189.58335648 -.00928243  00000-0 -92287-1 0  9998
2 48796  87.4470 262.4645 0011843 126.2070 238.1519 14.94408889  3591
ONEWEB-0236             
1 48797U 21045AG  21189.58335648 -.00925956  00000-0 -10840+0 0  9990
2 48797  87.4167 262.4650 0008626 121.5138 222.6957 14.87932425  3593
ONEWEB-0248             
1 48798U 21045AH  21189.58335648 -.00880871  00000-0 -69394-1 0  9997
2 48798  87.4887 262.3776 0011662 120.7774  12.7592 15.03632156  3615
ONEWEB-0225             
1 48799U 21045AJ  21189.58335648 -.00884667  00000-0 -67492-1 0  9992
2 48799  87.4807 262.3835 0009009 120.3449 306.6631 15.04876662  7538
ONEWEB-0215             
1 48800U 21045AK  21189.91670139 -.01002917  00000-0 -11587+0 0  9992
2 48800  87.4281 262.3634 0010740 123.9093 342.7294 14.88672678  7541
ONEWEB-0216             
1 48801U 21045AL  21189.58335648 -.00923329  00000-0 -10333+0 0  9995
2 48801  87.4457 262.5376 0009496 124.6233 337.5321 14.89729818  3596
ONEWEB-0239             
1 48802U 21045AM  21189.58335648 -.00873094  00000-0 -87979-1 0  9991
2 48802  87.4689 262.4579 0013557 120.1890 300.3441 14.94141821  3602
ONEWEB-0249             
1 48967U 21060A   21189.83334491 -.00038678  00000-0 -95610-3 0  9997
2 48967  87.3973 234.8382 0003994 252.1778 286.4044 15.40685382  2406
ONEWEB-0250             
1 48968U 21060B   21189.91670139  .00027015  00000-0  67405-3 0  9991
2 48968  87.3984 234.8097 0005599 222.3410  42.3975 15.40046904  2422
ONEWEB-0251             
1 48969U 21060C   21189.91670139  .00028591  00000-0  74256-3 0  9994
2 48969  87.3964 234.8116 0007229 258.9465 333.5665 15.38806053  2416
ONEWEB-0252             
1 48970U 21060D   21189.91670139  .00025841  00000-0  61541-3 0  9994
2 48970  87.3999 234.8085 0007495 248.1730  53.2978 15.41448910  2424
ONEWEB-0253             
1 48971U 21060E   21189.83334491 -.00036237  00000-0 -99054-3 0  9997
2 48971  87.3984 234.8506 0005155 230.2866 228.5905 15.37587449  2399
ONEWEB-0254             
1 48972U 21060F   21189.58335648  .00043902  00000-0  11340-2 0  9991
2 48972  87.3976 234.9324 0007652 258.9370 291.1147 15.38926848  2352
ONEWEB-0255             
1 48973U 21060G   21189.91670139  .00026543  00000-0  65199-3 0  9990
2 48973  87.3992 234.8087 0003540 247.3278  30.1501 15.40533747  2425
ONEWEB-0256             
1 48974U 21060H   21189.58335648  .00044160  00000-0  11302-2 0  9998
2 48974  87.3993 234.9317 0007882 247.9361 309.0456 15.39206980  2371
ONEWEB-0257             
1 48975U 21060J   21189.91670139  .00027399  00000-0  68909-3 0  9994
2 48975  87.3986 234.8093 0006553 226.3760  31.9225 15.39797509  2425
ONEWEB-0258             
1 48976U 21060K   21189.58335648  .00042293  00000-0  11340-2 0  9997
2 48976  87.3998 234.9389 0004485 243.1710 278.9540 15.37801012  2350
ONEWEB-0259             
1 48977U 21060L   21189.91670139  .00025310  00000-0  59776-3 0  9999
2 48977  87.3991 234.8056 0008352 243.5196  64.4192 15.41694136  2424
ONEWEB-0260             
1 48978U 21060M   21189.58335648  .00041724  00000-0  11231-2 0  9996
2 48978  87.3959 234.9334 0004830 237.3804 281.6570 15.37680772  2354
ONEWEB-0261             
1 48979U 21060N   21189.83334491 -.00039384  00000-0 -94342-3 0  9996
2 48979  87.3975 234.8313 0007944 246.0546 316.5891 15.41611650  2402
ONEWEB-0262             
1 48980U 21060P   21189.91670139  .00026320  00000-0  63879-3 0  9994
2 48980  87.3982 234.8075 0004926 257.1511  29.7583 15.40892998  2427
ONEWEB-0263             
1 48981U 21060Q   21189.91670139  .00027309  00000-0  68420-3 0  9990
2 48981  87.3980 234.8128 0006084 224.7447  36.6680 15.39918117  2425
ONEWEB-0264             
1 48982U 21060R   21189.58335648  .00043481  00000-0  11369-2 0  9995
2 48982  87.3970 234.9316 0006540 267.8069 273.2329 15.38562046  2356
ONEWEB-0265             
1 48983U 21060S   21189.83334491 -.00038754  00000-0 -96108-3 0  9993
2 48983  87.3978 234.8370 0003752 240.6976 295.2778 15.40588556  2407
ONEWEB-0266             
1 48984U 21060T   21189.91670139  .00027824  00000-0  71291-3 0  9995
2 48984  87.3950 234.8108 0007439 243.2802   0.3038 15.39221864  2420
